start=new Date('2023-04-15T00:00:00.000Z').valueOf();
sats=[{"CENTER_NAME":"EARTH","TLE_LINE2":"2 52564  53.2176 213.7080 0001536  81.4907 278.6259 15.08835916 51318","GP_ID":"230058508","DECAY_DATE":null,"FILE":"3887333","REV_AT_EPOCH":"5131","OBJECT_TYPE":"PAYLOAD","MEAN_MOTION":"15.08835916","MEAN_ELEMENT_THEORY":"SGP4","RCS_SIZE":"LARGE","PERIAPSIS":"538.695","ELEMENT_SET_NO":"999","NORAD_CAT_ID":"52564","EPOCH":"2023-04-14T10:55:49.909728","EPHEMERIS_TYPE":"0","MEAN_MOTION_DDOT":"0.0000000000000","MEAN_MOTION_DOT":"0.00001017","BSTAR":"0.00008200800000","LAUNCH_DATE":"2022-05-13","REF_FRAME":"TEME","OBJECT_ID":"2022-051AH","TIME_SYSTEM":"UTC","OBJECT_NAME":"STARLINK-3959","SEMIMAJOR_AXIS":"6917.893","ARG_OF_PERICENTER":"81.4907","APOAPSIS":"540.820","PERIOD":"95.438","ECCENTRICITY":"0.00015360","RA_OF_ASC_NODE":"213.7080","TLE_LINE1":"1 52564U 22051AH  23104.45543877  .00001017  00000-0  82008-4 0  9996","INCLINATION":"53.2176","SITE":"AFWTR","COUNTRY_CODE":"US","CLASSIFICATION_TYPE":"U","MEAN_ANOMALY":"278.6259"},{"ELEMENT_SET_NO":"999","PERIAPSIS":"538.879","RCS_SIZE":"LARGE","MEAN_ELEMENT_THEORY":"SGP4","MEAN_MOTION_DDOT":"0.0000000000000","EPHEMERIS_TYPE":"0","EPOCH":"2023-04-14T11:20:17.002464","NORAD_CAT_ID":"52565","GP_ID":"230058758","TLE_LINE2":"2 52565  53.2151 198.6230 0001259  75.7081 284.4051 15.08838465 51521","CENTER_NAME":"EARTH","MEAN_MOTION":"15.08838465","OBJECT_TYPE":"PAYLOAD","REV_AT_EPOCH":"5152","FILE":"3887333","DECAY_DATE":null,"TLE_LINE1":"1 52565U 22051AJ  23104.47241901  .00002058  00000-0  14735-3 0  9999","RA_OF_ASC_NODE":"198.6230","ECCENTRICITY":"0.00012590","PERIOD":"95.438","APOAPSIS":"540.621","ARG_OF_PERICENTER":"75.7081","OBJECT_NAME":"STARLINK-3911","SEMIMAJOR_AXIS":"6917.885","MEAN_ANOMALY":"284.4051","CLASSIFICATION_TYPE":"U","COUNTRY_CODE":"US","SITE":"AFWTR","INCLINATION":"53.2151","LAUNCH_DATE":"2022-05-13","BSTAR":"0.00014735000000","MEAN_MOTION_DOT":"0.00002058","TIME_SYSTEM":"UTC","OBJECT_ID":"2022-051AJ","REF_FRAME":"TEME"},{"REV_AT_EPOCH":"5142","MEAN_MOTION":"15.08845304","OBJECT_TYPE":"PAYLOAD","DECAY_DATE":null,"FILE":"3887376","GP_ID":"230063093","CENTER_NAME":"EARTH","TLE_LINE2":"2 52566  53.2128 212.6100 0001333  63.8868 296.2261 15.08845304 51426","MEAN_MOTION_DDOT":"0.0000000000000","NORAD_CAT_ID":"52566","EPOCH":"2023-04-14T16:44:11.583456","EPHEMERIS_TYPE":"0","PERIAPSIS":"538.807","ELEMENT_SET_NO":"999","MEAN_ELEMENT_THEORY":"SGP4","RCS_SIZE":"LARGE","TIME_SYSTEM":"UTC","REF_FRAME":"TEME","OBJECT_ID":"2022-051AK","LAUNCH_DATE":"2022-05-13","BSTAR":"0.00017988000000","MEAN_MOTION_DOT":"0.00002576","COUNTRY_CODE":"US","CLASSIFICATION_TYPE":"U","MEAN_ANOMALY":"296.2261","INCLINATION":"53.2128","SITE":"AFWTR","ECCENTRICITY":"0.00013330","RA_OF_ASC_NODE":"212.6100","TLE_LINE1":"1 52566U 22051AK  23104.69735629  .00002576  00000-0  17988-3 0  9997","SEMIMAJOR_AXIS":"6917.864","OBJECT_NAME":"STARLINK-3938","ARG_OF_PERICENTER":"63.8868","PERIOD":"95.437","APOAPSIS":"540.651"},{"EPHEMERIS_TYPE":"0","EPOCH":"2023-04-14T15:55:49.130112","NORAD_CAT_ID":"52567","MEAN_MOTION_DDOT":"0.0000000000000","MEAN_ELEMENT_THEORY":"SGP4","RCS_SIZE":"LARGE","PERIAPSIS":"538.985","ELEMENT_SET_NO":"999","DECAY_DATE":null,"FILE":"3887376","OBJECT_TYPE":"PAYLOAD","MEAN_MOTION":"15.08859306","REV_AT_EPOCH":"5162","TLE_LINE2":"2 52567  53.2160 197.7639 0001014  70.0008 290.1093 15.08859306 51620","CENTER_NAME":"EARTH","GP_ID":"230063063","SITE":"AFWTR","INCLINATION":"53.2160","MEAN_ANOMALY":"290.1093","CLASSIFICATION_TYPE":"U","COUNTRY_CODE":"US","APOAPSIS":"540.388","PERIOD":"95.436","OBJECT_NAME":"STARLINK-3929","SEMIMAJOR_AXIS":"6917.821","ARG_OF_PERICENTER":"70.0008","RA_OF_ASC_NODE":"197.7639","TLE_LINE1":"1 52567U 22051AL  23104.66376308  .00000908  00000-0  75105-4 0  9993","ECCENTRICITY":"0.00010140","REF_FRAME":"TEME","OBJECT_ID":"2022-051AL","TIME_SYSTEM":"UTC","BSTAR":"0.00007510500000","MEAN_MOTION_DOT":"0.00000908","LAUNCH_DATE":"2022-05-13"},{"REV_AT_EPOCH":"5159","MEAN_MOTION":"15.08838122","OBJECT_TYPE":"PAYLOAD","FILE":"3887376","DECAY_DATE":null,"GP_ID":"230063062","CENTER_NAME":"EARTH","TLE_LINE2":"2 52568  53.2173 198.7051 0001404  76.8379 283.2770 15.08838122 51596","MEAN_MOTION_DDOT":"0.0000000000000","NORAD_CAT_ID":"52568","EPOCH":"2023-04-14T10:53:47.306400","EPHEMERIS_TYPE":"0","ELEMENT_SET_NO":"999","PERIAPSIS":"538.780","RCS_SIZE":"LARGE","MEAN_ELEMENT_THEORY":"SGP4","TIME_SYSTEM":"UTC","OBJECT_ID":"2022-051AM","REF_FRAME":"TEME","LAUNCH_DATE":"2022-05-13","MEAN_MOTION_DOT":"0.00002091","BSTAR":"0.00014946000000","COUNTRY_CODE":"US","CLASSIFICATION_TYPE":"U","MEAN_ANOMALY":"283.2770","INCLINATION":"53.2173","SITE":"AFWTR","ECCENTRICITY":"0.00014040","TLE_LINE1":"1 52568U 22051AM  23104.45401975  .00002091  00000-0  14946-3 0  9990","RA_OF_ASC_NODE":"198.7051","ARG_OF_PERICENTER":"76.8379","SEMIMAJOR_AXIS":"6917.886","OBJECT_NAME":"STARLINK-3930","APOAPSIS":"540.722","PERIOD":"95.438"},{"INCLINATION":"53.2137","SITE":"AFWTR","COUNTRY_CODE":"US","MEAN_ANOMALY":"286.3930","CLASSIFICATION_TYPE":"U","SEMIMAJOR_AXIS":"6917.909","OBJECT_NAME":"STARLINK-3927","ARG_OF_PERICENTER":"73.7200","PERIOD":"95.438","APOAPSIS":"540.645","ECCENTRICITY":"0.00012590","RA_OF_ASC_NODE":"196.2924","TLE_LINE1":"1 52569U 22051AN  23104.99130324 -.00000004  00000-0  17836-4 0  9992","REF_FRAME":"TEME","OBJECT_ID":"2022-051AN","TIME_SYSTEM":"UTC","BSTAR":"0.00001783600000","MEAN_MOTION_DOT":"-0.00000004","LAUNCH_DATE":"2022-05-13","EPOCH":"2023-04-14T23:47:28.599936","NORAD_CAT_ID":"52569","EPHEMERIS_TYPE":"0","MEAN_MOTION_DDOT":"0.0000000000000","MEAN_ELEMENT_THEORY":"SGP4","RCS_SIZE":"LARGE","PERIAPSIS":"538.903","ELEMENT_SET_NO":"999","DECAY_DATE":null,"FILE":"3887581","REV_AT_EPOCH":"5167","MEAN_MOTION":"15.08830515","OBJECT_TYPE":"PAYLOAD","CENTER_NAME":"EARTH","TLE_LINE2":"2 52569  53.2137 196.2924 0001259  73.7200 286.3930 15.08830515 51675","GP_ID":"230067593"},{"REV_AT_EPOCH":"5162","MEAN_MOTION":"15.08853644","OBJECT_TYPE":"PAYLOAD","FILE":"3887376","DECAY_DATE":null,"GP_ID":"230063066","CENTER_NAME":"EARTH","TLE_LINE2":"2 52570  53.2168 197.8244 0000692  67.7106 292.3960 15.08853644 51624","MEAN_MOTION_DDOT":"0.0000000000000","NORAD_CAT_ID":"52570","EPOCH":"2023-04-14T15:34:37.836192","EPHEMERIS_TYPE":"0","ELEMENT_SET_NO":"999","PERIAPSIS":"539.225","RCS_SIZE":"LARGE","MEAN_ELEMENT_THEORY":"SGP4","TIME_SYSTEM":"UTC","OBJECT_ID":"2022-051AP","REF_FRAME":"TEME","LAUNCH_DATE":"2022-05-13","BSTAR":"0.00023311000000","MEAN_MOTION_DOT":"0.00003426","COUNTRY_CODE":"US","MEAN_ANOMALY":"292.3960","CLASSIFICATION_TYPE":"U","INCLINATION":"53.2168","SITE":"AFWTR","ECCENTRICITY":"0.00006920","TLE_LINE1":"1 52570U 22051AP  23104.64904903  .00003426  00000-0  23311-3 0  9992","RA_OF_ASC_NODE":"197.8244","ARG_OF_PERICENTER":"67.7106","SEMIMAJOR_AXIS":"6917.839","OBJECT_NAME":"STARLINK-3924","APOAPSIS":"540.182","PERIOD":"95.437"},{"MEAN_MOTION":"15.08836635","OBJECT_TYPE":"PAYLOAD","REV_AT_EPOCH":"5152","FILE":"3887333","DECAY_DATE":null,"GP_ID":"230058759","TLE_LINE2":"2 52574  53.2183 198.6879 0001467  73.0879 287.0274 15.08836635 51525","CENTER_NAME":"EARTH","MEAN_MOTION_DDOT":"0.0000000000000","EPHEMERIS_TYPE":"0","NORAD_CAT_ID":"52574","EPOCH":"2023-04-14T10:59:05.512416","ELEMENT_SET_NO":"999","PERIAPSIS":"538.741","RCS_SIZE":"LARGE","MEAN_ELEMENT_THEORY":"SGP4","TIME_SYSTEM":"UTC","OBJECT_ID":"2022-051AQ","REF_FRAME":"TEME","LAUNCH_DATE":"2022-05-13","MEAN_MOTION_DOT":"0.00001603","BSTAR":"0.00011878000000","MEAN_ANOMALY":"287.0274","CLASSIFICATION_TYPE":"U","COUNTRY_CODE":"US","SITE":"AFWTR","INCLINATION":"53.2183","TLE_LINE1":"1 52574U 22051AQ  23104.45770269  .00001603  00000-0  11878-3 0  9991","RA_OF_ASC_NODE":"198.6879","ECCENTRICITY":"0.00014670","PERIOD":"95.438","APOAPSIS":"540.771","ARG_OF_PERICENTER":"73.0879","SEMIMAJOR_AXIS":"6917.891","OBJECT_NAME":"STARLINK-3901"},{"TIME_SYSTEM":"UTC","REF_FRAME":"TEME","OBJECT_ID":"2022-051AR","LAUNCH_DATE":"2022-05-13","BSTAR":"0.00012426000000","MEAN_MOTION_DOT":"0.00001691","CLASSIFICATION_TYPE":"U","MEAN_ANOMALY":"255.6358","COUNTRY_CODE":"US","SITE":"AFWTR","INCLINATION":"53.2156","RA_OF_ASC_NODE":"197.8430","TLE_LINE1":"1 52575U 22051AR  23104.64537160  .00001691  00000-0  12426-3 0  9991","ECCENTRICITY":"0.00009640","APOAPSIS":"540.391","PERIOD":"95.437","SEMIMAJOR_AXIS":"6917.859","OBJECT_NAME":"STARLINK-3920","ARG_OF_PERICENTER":"104.4741","OBJECT_TYPE":"PAYLOAD","MEAN_MOTION":"15.08846908","REV_AT_EPOCH":"5162","DECAY_DATE":null,"FILE":"3887376","GP_ID":"230063094","TLE_LINE2":"2 52575  53.2156 197.8430 0000964 104.4741 255.6358 15.08846908 51627","CENTER_NAME":"EARTH","MEAN_MOTION_DDOT":"0.0000000000000","EPHEMERIS_TYPE":"0","NORAD_CAT_ID":"52575","EPOCH":"2023-04-14T15:29:20.106240","PERIAPSIS":"539.057","ELEMENT_SET_NO":"999","MEAN_ELEMENT_THEORY":"SGP4","RCS_SIZE":"LARGE"},{"MEAN_MOTION_DDOT":"0.0000000000000","NORAD_CAT_ID":"52576","EPOCH":"2023-04-14T12:09:21.119616","EPHEMERIS_TYPE":"0","ELEMENT_SET_NO":"999","PERIAPSIS":"538.954","RCS_SIZE":"LARGE","MEAN_ELEMENT_THEORY":"SGP4","REV_AT_EPOCH":"5153","OBJECT_TYPE":"PAYLOAD","MEAN_MOTION":"15.08838271","FILE":"3887333","DECAY_DATE":null,"GP_ID":"230059261","CENTER_NAME":"EARTH","TLE_LINE2":"2 52576  53.2172 198.4687 0001151  97.0027 263.1096 15.08838271 51537","COUNTRY_CODE":"US","MEAN_ANOMALY":"263.1096","CLASSIFICATION_TYPE":"U","INCLINATION":"53.2172","SITE":"AFWTR","ECCENTRICITY":"0.00011510","TLE_LINE1":"1 52576U 22051AS  23104.50649444  .00001455  00000-0  10951-3 0  9995","RA_OF_ASC_NODE":"198.4687","ARG_OF_PERICENTER":"97.0027","OBJECT_NAME":"STARLINK-3932","SEMIMAJOR_AXIS":"6917.886","APOAPSIS":"540.547","PERIOD":"95.438","TIME_SYSTEM":"UTC","OBJECT_ID":"2022-051AS","REF_FRAME":"TEME","LAUNCH_DATE":"2022-05-13","MEAN_MOTION_DOT":"0.00001455","BSTAR":"0.00010951000000"}];
